IRIDIUM 166             
1 43570U 18061B   25267.26766583  .00000256  00000+0  84415-4 0  9998
2 43570  86.4040 167.8884 0002206  78.3529 281.7914 14.34217926375285
IRIDIUM 158             
1 43571U 18061C   25267.16618141  .00000152  00000+0  47355-4 0  9991
2 43571  86.4042 167.9406 0002263  86.5986 273.5469 14.34217154375232
IRIDIUM 165             
1 43572U 18061D   25267.26132347  .00000138  00000+0  42304-4 0  9995
2 43572  86.4042 167.9421 0002083  79.2846 280.8584 14.34218808375274
IRIDIUM 155             
1 43573U 18061E   25267.22326900  .00000099  00000+0  28429-4 0  9990
2 43573  86.4038 167.8406 0002350  83.5502 276.5962 14.34218397375237
IRIDIUM 154             
1 43574U 18061F   25267.13446912  .00000327  00000+0  10962-3 0  9993
2 43574  86.4041 167.9978 0002133  81.8102 278.3336 14.34220369375274
IRIDIUM 163             
1 43575U 18061G   25267.25498134  .00000128  00000+0  38490-4 0  9996
2 43575  86.4038 167.8712 0002125  88.1723 271.9717 14.34218646375262
IRIDIUM 156             
1 43576U 18061H   25267.15984303  .00000221  00000+0  71947-4 0  9992
2 43576  86.4040 167.9179 0002446  81.2433 278.9040 14.34218598375242
IRIDIUM 164             
1 43577U 18061J   25267.14081335  .00000138  00000+0  42160-4 0  9997
2 43577  86.4039 167.9618 0002138  78.2647 281.8788 14.34217892375282
